OBJECT_NAME,OBJECT_ID,EPOCH,MEAN_MOTION,ECCENTRICITY,INCLINATION,RA_OF_ASC_NODE,ARG_OF_PERICENTER,MEAN_ANOMALY,EPHEMERIS_TYPE,CLASSIFICATION_TYPE,NORAD_CAT_ID,ELEMENT_SET_NO,REV_AT_EPOCH,BSTAR,MEAN_MOTION_DOT,MEAN_MOTION_DDOT
ORBCOMM FM110,2015-081D,2026-06-25T20:52:54.702048,14.58892092,.0002584,47.0031,320.3877,128.0732,232.0387,0,U,41182,999,55889,.1617E-3,.594E-5,0
ORBCOMM FM118,2015-081E,2026-06-25T21:42:16.322976,14.58886133,.0002319,47.0054,320.5586,77.9621,282.1524,0,U,41183,999,55900,.11675E-3,.381E-5,0
ORBCOMM FM112,2015-081F,2026-06-25T11:56:53.425248,14.58913169,.0004073,46.9976,230.9484,250.8293,109.2152,0,U,41184,999,56016,.11714E-3,.383E-5,0
ORBCOMM FM113,2015-081G,2026-06-24T20:36:02.113920,14.58864475,.0002552,46.9996,234.3526,251.1934,108.8675,0,U,41185,999,56005,.86126666E-4,.236E-5,0
ORBCOMM FM108,2015-081J,2026-06-26T04:34:09.835968,14.58884496,.0003129,47.0037,139.6294,255.2318,104.8221,0,U,41187,999,56139,.16846E-3,.625E-5,0
ORBCOMM FM117,2015-081K,2026-06-25T14:35:37.635072,14.58870589,.0003651,46.9999,141.0141,256.7948,103.2531,0,U,41188,999,56135,.94183E-4,.274E-5,0
ORBCOMM FM116,2015-081L,2026-06-25T12:28:41.228832,14.58892527,.0000645,47.0011,231.2222,150.1988,209.8935,0,U,41189,999,56015,.12318E-3,.412E-5,0
EXPRESS-AMU1,2015-082A,2026-06-26T04:10:16.275072,1.00271812,.0002963,0.0168,32.8170,62.5921,277.5346,0,U,41191,999,3835,0,.166E-5,0
GAOFEN-4,2015-083A,2026-06-25T21:39:16.789824,1.00271078,.0004051,0.3805,83.9226,113.8387,146.7998,0,U,41194,999,3861,0,-.324E-5,0
BELINTERSAT-1,2016-001A,2026-06-26T04:14:38.357376,1.00270523,.0001796,0.0061,227.5388,197.8757,324.0465,0,U,41238,999,3832,0,.118E-5,0
JASON-3,2016-002A,2026-06-26T00:17:55.355136,12.87556148,.0008418,66.0414,107.2818,272.3355,87.6700,0,U,41240,999,48838,-.53183E-4,-.76E-6,0
IRNSS-1E,2016-003A,2026-06-25T14:21:38.812032,1.00274592,.0019062,33.2517,59.6282,179.1130,2.2203,0,U,41241,999,3816,0,-.319E-5,0
EUTELSAT 9B,2016-005A,2026-06-26T04:02:32.015904,1.00269851,.0001774,0.0444,62.5804,2.0921,279.2643,0,U,41310,999,3820,0,.72E-6,0
NAVSTAR 76 (USA 266),2016-007A,2026-06-23T20:24:02.426112,2.00551374,.00958202,55.5277,89.1954,247.3210,111.6653,0,U,41328,999,7597,0,-.6E-6,0
COSMOS 2514 [GLONASS-M],2016-008A,2026-06-23T20:30:55.305792,2.13102654,.00115514,65.0172,312.7777,198.7083,161.2407,0,U,41330,999,8076,0,-.83E-6,0
SENTINEL-3A,2016-011A,2026-06-26T04:38:11.730048,14.26734963,.0001432,98.6246,244.4474,97.1017,263.0326,0,U,41335,999,53934,.56795E-4,.94E-6,0
HORYU-4,2016-012D,2026-06-25T22:02:13.400160,16.06293383,.0008742,30.9835,14.4936,324.9122,35.0966,0,U,41340,999,57221,.12774E-2,.1006703E-1,.53081E-3
SES-9,2016-013A,2026-06-25T09:41:29.101920,1.00272436,.0002423,0.0123,330.7857,116.8635,79.5646,0,U,41380,999,3752,0,-.335E-5,0
EUTELSAT 65 WEST A,2016-014A,2026-06-26T03:26:38.832000,1.00271914,.0002733,0.0465,353.7369,98.2576,168.7467,0,U,41382,999,3761,0,-.265E-5,0
IRNSS-1F,2016-015A,2026-06-25T23:01:14.192256,1.00271994,.0017447,5.3703,96.5826,184.4675,10.7518,0,U,41384,999,3775,0,.164E-5,0
COSMOS 2515,2016-020A,2026-06-26T05:02:28.821120,15.07973953,.0021787,97.9756,193.0254,272.6697,87.2036,0,U,41394,999,56177,.66986E-4,.965E-5,0
BEIDOU-2 IGSO-6,2016-021A,2026-06-24T02:12:21.652992,1.00259092,.00575384,60.2358,37.9691,231.1257,128.7042,0,U,41434,999,3755,0,-.155E-5,0
IRNSS-1G,2016-027A,2026-06-25T08:32:51.614016,1.00276580,.0006269,5.2158,97.2878,2.9813,70.7125,0,U,41469,999,3726,0,-.329E-5,0
JCSAT-2B,2016-028A,2026-06-25T23:35:48.378048,1.00271027,.0001191,0.0186,10.9972,78.5320,332.5344,0,U,41471,999,3721,0,-.155E-5,0
YAOGAN-30 01,2016-029A,2026-06-26T04:06:02.096640,14.76277578,.0014937,97.9011,226.8737,199.2958,160.7688,0,U,41473,999,54499,.10686E-3,.691E-5,0
GSAT0211 (GALILEO 14),2016-030A,2026-06-23T20:02:59.831808,1.70474023,.00030565,55.0937,221.5119,321.3377,38.7209,0,U,41549,999,6278,0,.46E-6,0
GSAT0210 (GALILEO 13),2016-030B,2026-06-25T06:22:49.933344,1.70473937,.0008659,55.0912,221.4705,257.5264,102.4641,0,U,41550,999,6280,0,.56E-6,0
THAICOM 8,2016-031A,2026-06-26T04:22:22.613952,1.00272257,.0003828,0.0708,47.0889,18.6688,352.6341,0,U,41552,999,3680,0,-.11E-5,0
ZIYUAN 3-02 (ZY 3-02),2016-033A,2026-06-26T04:49:46.399872,15.21260093,.0012452,97.3838,252.8021,255.9364,104.0488,0,U,41556,999,55935,.26041E-3,.5761E-4,0
COSMOS 2517 (GEO-IK 2),2016-034A,2026-06-26T04:01:04.885824,13.85911068,.0001033,99.1878,185.7826,89.2665,270.8609,0,U,41579,999,50887,.27852E-4,-.12E-6,0
INTELSAT 31 (IS-31),2016-035A,2026-06-26T04:39:44.405280,1.00272040,.0000699,0.0144,283.5507,334.6918,350.9622,0,U,41581,999,3677,0,-.14E-5,0
